MIRATA                  
1 43015U 17073C   18268.87859752  .00001472  00000-0  12199-3 0  9996
2 43015  97.7055 195.6841 0256303 303.9229  53.7848 14.78378210 46016
MAKERSAT 0              
1 43016U 17073D   18268.79692682  .00001001  00000-0  84534-4 0  9996
2 43016  97.7085 195.7573 0257824 304.2575  53.4458 14.78314541 45997
ASTERIA                 
1 43020U 98067NH  18268.37757872  .00013179  00000-0  15695-3 0  9990
2 43020  51.6411 230.2650 0002291 163.2128 196.8942 15.61457407 48139
DELLINGR (RBLE)         
1 43021U 98067NJ  18268.43966022  .00007719  00000-0  10438-3 0  9990
2 43021  51.6389 232.8849 0002333 155.6395 204.4708 15.58799925 48103
OSIRIS-3U               
1 43027U 98067NL  18268.39639340  .00044924  00000-0  36062-3 0  9991
2 43027  51.6362 221.2834 0003689 133.9252 226.2050 15.70523417 48132
AEROCUBE 7B             
1 43042U 17071F   18268.88975598  .00003833  00000-0  10630-3 0  9993
2 43042  51.6377 270.7158 0004381 273.5746  86.4738 15.39442095 45113
AEROCUBE 7C             
1 43043U 17071G   18268.88972864  .00003810  00000-0  10571-3 0  9996
2 43043  51.6380 270.7224 0004490 275.2797  84.7675 15.39444875 45083
CHEFSAT                 
1 43044U 17071H   18268.89324823  .00005666  00000-0  14607-3 0  9999
2 43044  51.6385 269.2860 0004399 276.2376  83.8108 15.40730863 45101
ASGARDIA 1              
1 43049U 17071N   18268.86229613  .00003001  00000-0  85061-4 0  9996
2 43049  51.6383 270.5492 0002107 303.2472  56.8310 15.39564039 45083
ISARA                   
1 43050U 17071P   18268.90762700  .00004467  00000-0  11815-3 0  9994
2 43050  51.6378 269.3699 0001982 302.6728  57.4065 15.40489766 45103
FAUNA                   
1 43052U 17071R   18268.90599416  .00002989  00000-0  84324-4 0  9991
2 43052  51.6384 270.1025 0001992 299.4361  60.6424 15.39728603 45088
CORVUS BC3              
1 43118U 18004H   18268.90745728  .00000822  00000-0  38615-4 0  9996
2 43118  97.5234 331.6490 0012248 101.5906 258.6706 15.22405986 39035
MICROMAS-2A             
1 43131U 18004W   18268.82529881  .00001976  00000-0  86663-4 0  9999
2 43131  97.5245 331.7841 0011399 104.6450 255.6052 15.23137798 39032
GOMX4-B                 
1 43196U 18015E   18268.88499310  .00000448  00000-0  21484-4 0  9994
2 43196  97.3578  35.8272 0019282 159.5751 200.6260 15.23751139 35861
GOMX4-A                 
1 43197U 18015F   18268.76908236  .00000662  00000-0  30315-4 0  9995
2 43197  97.3592  35.7187 0019798 159.5707 306.6750 15.23764845 35853
1KUNS-PF                
1 43466U 98067NP  18268.38818070  .00014054  00000-0  19210-3 0  9993
2 43466  51.6386 237.0310 0001386  90.7707 269.3444 15.57729747 21300
UBAKUSAT                
1 43467U 98067NQ  18268.53716305  .00009832  00000-0  13956-3 0  9998
2 43467  51.6388 236.5295 0003115 127.9570 232.1704 15.57118604 21336
BATSU-CS1 (IRAZU)       
1 43468U 98067NR  18268.30189109  .00016140  00000-0  21547-3 0  9995
2 43468  51.6387 237.2054 0001463  83.3081 276.8078 15.58237543121282
CUBERRT                 
1 43546U 98067NU  18268.53071418  .00015152  00000-0  22173-3 0  9998
2 43546  51.6387 237.9760 0005322 203.9562 156.1182 15.55798590 11445
TEMPEST-D               
1 43547U 98067NV  18268.86174635  .00003923  00000-0  63931-4 0  9991
2 43547  51.6389 236.4367 0005500 207.4685 152.6016 15.55235599 11170
HALOSAT                 
1 43549U 98067NX  18268.40921769  .00009910  00000-0  14877-3 0  9997
2 43549  51.6385 238.6646 0005234 214.5228 145.5424 15.55569179 11110
ENDUROSAT ONE           
1 43551U 98067NZ  18268.45801019  .00011429  00000-0  16761-3 0  9992
2 43551  51.6384 238.2406 0005515 223.0101 137.0460 15.56031897 11533
EQUISAT                 
1 43552U 98067PA  18268.91021999  .00009585  00000-0  14244-3 0  9999
2 43552  51.6387 236.0117 0005798 225.6853 134.3663 15.55891097 11560
AEROCUBE 12A            
1 43556U 18046C   18268.51146126  .00001925  00000-0  82616-4 0  9997
2 43556  51.6414 252.6385 0008471 195.8367 164.2349 15.27831217 10856
AEROCUBE 12B            
1 43557U 18046D   18268.51173863  .00001657  00000-0  72972-4 0  9992
2 43557  51.6414 252.6403 0008483 195.7474 164.3243 15.27808018 10801
UITMSAT-1               
1 43589U 98067PD  18268.36371638  .00010098  00000-0  15223-3 0  9995
2 43589  51.6383 239.1090 0005079 233.9843 126.0677 15.55427853  7218
MAYA-1                  
1 43590U 98067PE  18268.36287939  .00010014  00000-0  15088-3 0  9994
2 43590  51.6384 239.1037 0005160 235.0947 124.9560 15.55455744  7141
BHUTAN-1                
1 43591U 98067PF  18268.36177857  .00010086  00000-0  15169-3 0  9991
2 43591  51.6384 239.0964 0005254 236.5588 123.4902 15.55494562  7146
SIRIUSSAT 1             
1 43595U 98067PG  18268.88939540  .00009619  00000-0  14727-3 0  9996
2 43595  51.6386 236.6156 0003397 175.1983 184.9041 15.55071269  6400
SIRIUSSAT 2             
1 43596U 98067PH  18268.89300447  .00009606  00000-0  14782-3 0  9993
2 43596  51.6395 236.6441 0003998 181.5175 178.5805 15.54929950  6404
TANUSHA-3               
1 43597U 98067PJ  18268.89140669  .00010936  00000-0  16648-3 0  9993
2 43597  51.6375 236.6264 0003184 192.6644 167.4268 15.55063895  6405
SURFSAT                 
1 43614U 18070B   18268.94205482  .00002624  00000-0  74433-4 0  9992
2 43614  93.0227 253.8458 0013845 249.2746 110.7026 15.36217959  1593
CP-7 (DAVE)             
1 43615U 18070C   18268.94197772  .00002582  00000-0  73220-4 0  9991
2 43615  93.0233 253.8465 0013761 249.5489 110.4286 15.36228924  1592
ELFIN-B                 
1 43616U 18070D   18268.48564805 -.00000007  00000-0  00000-0 0  9999
2 43616  93.0227 253.6469 0013847 254.1981 105.7762 15.36269649  1520
ELFIN-A                 
1 43617U 18070E   18268.48555441 -.00000007  00000-0  00000-0 0  9996
2 43617  93.0268 253.6652 0012903 250.7402 109.2711 15.36284775  1522
